{
    "links": {
        "self": "http://www.neowsapp.com/rest/v1/neo/3795082?api_key=iIulBulltgU6a56xZRHN4H3l9WmuAYTsLGpBGhQ2"
    },
    "id": "3795082",
    "neo_reference_id": "3795082",
    "name": "(2017 YJ5)",
    "designation": "2017 YJ5",
    "nasa_jpl_url": "http://ssd.jpl.nasa.gov/sbdb.cgi?sstr=3795082",
    "absolute_magnitude_h": 22.2,
    "estimated_diameter": {
        "kilometers": {
            "estimated_diameter_min": 0.096506147,
            "estimated_diameter_max": 0.2157943048
        },
        "meters": {
            "estimated_diameter_min": 96.5061469579,
            "estimated_diameter_max": 215.7943048444
        },
        "miles": {
            "estimated_diameter_min": 0.059966121,
            "estimated_diameter_max": 0.134088323
        },
        "feet": {
            "estimated_diameter_min": 316.6212271853,
            "estimated_diameter_max": 707.9865871058
        }
    },
    "is_potentially_hazardous_asteroid": false,
    "close_approach_data": [
        {
            "close_approach_date": "2017-12-27",
            "close_approach_date_full": "2017-Dec-27 12:20",
            "epoch_date_close_approach": 1514377200000,
            "relative_velocity": {
                "kilometers_per_second": "10.8850431305",
                "kilometers_per_hour": "39186.155269913",
                "miles_per_hour": "24348.7529786857"
            },
            "miss_distance": {
                "astronomical": "0.2959956938",
                "lunar": "115.1423248882",
                "kilometers": "44280325.321652206",
                "miles": "27514518.2897082028"
            },
            "orbiting_body": "Earth"
        }
    ],
    "orbital_data": {
        "orbit_id": "1",
        "orbit_determination_date": "2017-12-27 12:42:08",
        "first_observation_date": "2017-12-24",
        "last_observation_date": "2017-12-27",
        "data_arc_in_days": 3,
        "observations_used": 21,
        "orbit_uncertainty": "8",
        "minimum_orbit_intersection": ".244421",
        "jupiter_tisserand_invariant": "4.711",
        "epoch_osculation": "2458112.5",
        "eccentricity": ".1154465907772825",
        "semi_major_axis": "1.386460584538957",
        "inclination": "20.95141684032718",
        "ascending_node_longitude": "88.4269663492254",
        "orbital_period": "596.2930098389354",
        "perihelion_distance": "1.226398436806856",
        "perihelion_argument": "348.7229112242297",
        "aphelion_distance": "1.546522732271058",
        "perihelion_time": "2458081.648618673651",
        "mean_anomaly": "18.62590554346027",
        "mean_motion": ".6037300355025788",
        "equinox": "J2000",
        "orbit_class": {
            "orbit_class_type": "AMO",
            "orbit_class_description": "Near-Earth asteroid orbits similar to that of 1221 Amor",
            "orbit_class_range": "1.017 AU < q (perihelion) < 1.3 AU"
        }
    },
    "is_sentry_object": false
}